[Satellite]
VERSION=1.1
NAME=SAUDICOMSAT 7
NICKNAME=SAUDICOMSAT 7
TLE1=1 31119U 07012C   17186.15411225  .00000036  00000-0  16385-4 0  9995
TLE2=2 31119  97.9499 148.4778 0060427   7.0307 353.1729 14.61588595544532
